{
    "links": {
        "self": "http://www.neowsapp.com/rest/v1/neo/3722210?api_key=iIulBulltgU6a56xZRHN4H3l9WmuAYTsLGpBGhQ2"
    },
    "id": "3722210",
    "neo_reference_id": "3722210",
    "name": "(2015 MP66)",
    "designation": "2015 MP66",
    "nasa_jpl_url": "http://ssd.jpl.nasa.gov/sbdb.cgi?sstr=3722210",
    "absolute_magnitude_h": 23.0,
    "estimated_diameter": {
        "kilometers": {
            "estimated_diameter_min": 0.0667659413,
            "estimated_diameter_max": 0.1492931834
        },
        "meters": {
            "estimated_diameter_min": 66.7659413495,
            "estimated_diameter_max": 149.2931834393
        },
        "miles": {
            "estimated_diameter_min": 0.0414864197,
            "estimated_diameter_max": 0.0927664547
        },
        "feet": {
            "estimated_diameter_min": 219.0483710172,
            "estimated_diameter_max": 489.807047955
        }
    },
    "is_potentially_hazardous_asteroid": false,
    "close_approach_data": [
        {
            "close_approach_date": "2015-07-13",
            "close_approach_date_full": "2015-Jul-13 11:51",
            "epoch_date_close_approach": 1436788260000,
            "relative_velocity": {
                "kilometers_per_second": "7.5089487789",
                "kilometers_per_hour": "27032.21560399",
                "miles_per_hour": "16796.7675234903"
            },
            "miss_distance": {
                "astronomical": "0.1556772964",
                "lunar": "60.5584682996",
                "kilometers": "23288991.948798668",
                "miles": "14471108.5627628984"
            },
            "orbiting_body": "Earth"
        }
    ],
    "orbital_data": {
        "orbit_id": "10",
        "orbit_determination_date": "2017-04-06 08:32:57",
        "first_observation_date": "2015-06-22",
        "last_observation_date": "2015-08-21",
        "data_arc_in_days": 60,
        "observations_used": 30,
        "orbit_uncertainty": "7",
        "minimum_orbit_intersection": ".147515",
        "jupiter_tisserand_invariant": "3.532",
        "epoch_osculation": "2459000.5",
        "eccentricity": ".472065534625287",
        "semi_major_axis": "2.157300930124896",
        "inclination": "9.347888947817921",
        "ascending_node_longitude": "91.68757082140479",
        "orbital_period": "1157.349485593337",
        "perihelion_distance": "1.138913513197858",
        "perihelion_argument": "214.8459146391991",
        "aphelion_distance": "3.175688347051933",
        "perihelion_time": "2459544.293678789956",
        "mean_anomaly": "190.8499491283559",
        "mean_motion": ".3110555666039281",
        "equinox": "J2000",
        "orbit_class": {
            "orbit_class_type": "AMO",
            "orbit_class_description": "Near-Earth asteroid orbits similar to that of 1221 Amor",
            "orbit_class_range": "1.017 AU < q (perihelion) < 1.3 AU"
        }
    },
    "is_sentry_object": false
}